NORAD_CAT_ID,OBJECT_NAME,OBJECT_TYPE,EPOCH,MEAN_MOTION,ECCENTRICITY,INCLINATION,RA_OF_ASC_NODE,ARG_OF_PERICENTER,MEAN_ANOMALY,BSTAR,MEAN_MOTION_DOT,MEAN_MOTION_DDOT,TLE_LINE0,TLE_LINE1,TLE_LINE2,SEMIMAJOR_AXIS,PERIOD,APOGEE,PERIGEE,DECAYED
51150.0,STARLINK-3357,PAYLOAD,2024-05-02 05:13:26,15.08836437,0.0001554,53.2179,95.5355,87.2175,272.8995,1.2625e-05,-8.7e-07,0.0,0 STARLINK-3357,1 51150U 22005AY  24123.21767229 -.00000087  00000-0  12625-4 0  9995,2 51150  53.2179  95.5355 0001554  87.2175 272.8995 15.08836437127735,6917.891,95.438,540.831,538.681,0.0
51150.0,STARLINK-3357,PAYLOAD,2024-05-03 06:39:36,15.08841927,0.0001634,53.2177,90.7791,97.4868,262.631,0.00014359,1.998e-05,0.0,0 STARLINK-3357,1 51150U 22005AY  24124.27751082  .00001998  00000-0  14359-3 0  9998,2 51150  53.2177  90.7791 0001634  97.4868 262.6310 15.08841927127890,6917.874,95.437,540.87,538.609,0.0
51150.0,STARLINK-3357,PAYLOAD,2024-05-03 14:36:32,15.08848327,0.0001544,53.2176,89.2919,85.7465,274.3703,0.0002226,3.257e-05,0.0,0 STARLINK-3357,1 51150U 22005AY  24124.60870717  .00003257  00000-0  22260-3 0  9992,2 51150  53.2176  89.2919 0001544  85.7465 274.3703 15.08848327126837,6917.855,95.437,540.788,538.652,0.0
51150.0,STARLINK-3357,PAYLOAD,2024-05-04 04:55:02,15.08821552,0.0001424,53.2172,86.6142,86.4075,273.708,-0.00015022,-2.677e-05,0.0,0 STARLINK-3357,1 51150U 22005AY  24125.20488439 -.00002677  00000-0 -15022-3 0  9990,2 51150  53.2172  86.6142 0001424  86.4075 273.7080 15.08821552128030,6917.937,95.439,540.787,538.817,0.0
51150.0,STARLINK-3357,PAYLOAD,2024-05-04 14:27:20,15.08828507,0.0001495,53.2171,84.8314,87.1102,273.0062,-2.6274e-05,-7.06e-06,0.0,0 STARLINK-3357,1 51150U 22005AY  24125.60232567 -.00000706  00000-0 -26274-4 0  9996,2 51150  53.2171  84.8314 0001495  87.1102 273.0062 15.08828507128093,6917.916,95.438,540.815,538.746,0.0
51150.0,STARLINK-3357,PAYLOAD,2024-05-05 04:45:49,15.0884001,0.0001385,53.2162,82.1536,82.3101,277.8049,0.00031195,4.68e-05,0.0,0 STARLINK-3357,1 51150U 22005AY  24126.19848517  .00004680  00000-0  31195-3 0  9999,2 51150  53.2162  82.1536 0001385  82.3101 277.8049 15.08840010128184,6917.88,95.438,540.703,538.787,0.0
51150.0,STARLINK-3357,PAYLOAD,2024-05-05 06:21:12,15.08842875,0.000139,53.216,81.8559,82.2008,277.9142,0.00052678,8.106e-05,0.0,0 STARLINK-3357,1 51150U 22005AY  24126.26472574  .00008106  00000-0  52678-3 0  9999,2 51150  53.2160  81.8559 0001390  82.2008 277.9142 15.08842875127088,6917.872,95.437,540.698,538.775,0.0
51150.0,STARLINK-3357,PAYLOAD,2024-05-06 03:01:12,15.08870597,0.0001365,53.2158,77.9892,84.0165,276.0982,0.0010513,0.00016497,0.0,0 STARLINK-3357,1 51150U 22005AY  24127.12583861  .00016497  00000-0  10513-2 0  9990,2 51150  53.2158  77.9892 0001365  84.0165 276.0982 15.08870597128329,6917.787,95.436,540.596,538.708,0.0
51150.0,STARLINK-3357,PAYLOAD,2024-05-06 06:11:58,15.08895592,0.0001465,53.218,77.3903,95.0371,265.0788,0.0019923,0.0003161,0.0,0 STARLINK-3357,1 51150U 22005AY  24127.25831213  .00031610  00000-0  19923-2 0  9999,2 51150  53.2180  77.3903 0001465  95.0371 265.0788 15.08895592128349,6917.71,95.434,540.589,538.562,0.0
51150.0,STARLINK-3357,PAYLOAD,2024-05-06 14:08:51,15.08953846,0.0001103,53.2163,75.9073,90.8419,269.2699,0.0025649,0.00040897,0.0,0 STARLINK-3357,1 51150U 22005AY  24127.58948299  .00040897  00000-0  25649-2 0  9997,2 51150  53.2163  75.9073 0001103  90.8419 269.2699 15.08953846128396,6917.532,95.43,540.16,538.634,0.0
51150.0,STARLINK-3357,PAYLOAD,2024-05-07 02:51:56,15.08847676,0.0001316,53.2166,73.5275,113.832,246.2811,-0.001121,-0.00018088,0.0,0 STARLINK-3357,1 51150U 22005AY  24128.11940967 -.00018088  00000-0 -11210-2 0  9999,2 51150  53.2166  73.5275 0001316 113.8320 246.2811 15.08847676128473,6917.857,95.437,540.632,538.812,0.0
51150.0,STARLINK-3357,PAYLOAD,2024-05-07 06:02:43,15.08839901,0.0001181,53.2166,72.9349,100.7051,259.4074,-0.00095378,-0.00015435,0.0,0 STARLINK-3357,1 51150U 22005AY  24128.25189208 -.00015435  00000-0 -95378-3 0  9998,2 51150  53.2166  72.9349 0001181 100.7051 259.4074 15.08839901127382,6917.881,95.438,540.563,538.929,0.0
51150.0,STARLINK-3357,PAYLOAD,2024-05-07 20:21:13,15.08812282,0.0001267,53.2163,70.2593,99.7283,260.3853,0.00046575,7.127e-05,0.0,0 STARLINK-3357,1 51150U 22005AY  24128.84806958  .00007127  00000-0  46575-3 0  9993,2 51150  53.2163  70.2593 0001267  99.7283 260.3853 15.08812282128582,6917.965,95.439,540.707,538.954,0.0
51150.0,STARLINK-3357,PAYLOAD,2024-05-08 01:07:22,15.08823403,0.0001333,53.2163,69.3682,90.4965,269.618,-3.214e-07,-2.93e-06,0.0,0 STARLINK-3357,1 51150U 22005AY  24129.04678938 -.00000293  00000-0 -32140-6 0  9996,2 51150  53.2163  69.3682 0001333  90.4965 269.6180 15.08823403127502,6917.931,95.439,540.718,538.874,0.0
51150.0,STARLINK-3357,PAYLOAD,2024-05-09 02:33:33,15.08835113,0.0001441,53.2183,64.609,95.0007,265.115,0.00044062,6.731e-05,0.0,0 STARLINK-3357,1 51150U 22005AY  24130.10663987  .00006731  00000-0  44062-3 0  9997,2 51150  53.2183  64.6090 0001441  95.0007 265.1150 15.08835113128772,6917.895,95.438,540.757,538.763,0.0
51150.0,STARLINK-3357,PAYLOAD,2024-05-09 12:05:52,15.08849107,0.0001471,53.2187,62.8247,97.3027,262.8132,0.00066418,0.00010301,0.0,0 STARLINK-3357,1 51150U 22005AY  24130.50407718  .00010301  00000-0  66418-3 0  9996,2 51150  53.2187  62.8247 0001471  97.3027 262.8132 15.08849107127726,6917.853,95.437,540.735,538.7,0.0
51150.0,STARLINK-3357,PAYLOAD,2024-05-10 02:24:20,15.08842013,0.0001581,53.2203,60.1535,105.2017,254.915,0.00028782,4.296e-05,0.0,0 STARLINK-3357,1 51150U 22005AY  24131.10023953  .00004296  00000-0  28782-3 0  9996,2 51150  53.2203  60.1535 0001581 105.2017 254.9150 15.08842013128920,6917.874,95.437,540.833,538.646,0.0
51150.0,STARLINK-3357,PAYLOAD,2024-05-10 11:56:38,15.08859689,0.0001343,53.2191,58.3618,80.1432,279.9712,0.00052116,8.02e-05,0.0,0 STARLINK-3357,1 51150U 22005AY  24131.49767038  .00008020  00000-0  52116-3 0  9994,2 51150  53.2191  58.3618 0001343  80.1432 279.9712 15.08859689128989,6917.82,95.436,540.614,538.756,0.0
51150.0,STARLINK-3357,PAYLOAD,2024-05-11 02:15:07,15.08867603,0.0001439,53.2194,55.6896,88.8999,271.2158,0.00084,0.00013116,0.0,0 STARLINK-3357,1 51150U 22005AY  24132.09383340  .00013116  00000-0  84000-3 0  9990,2 51150  53.2194  55.6896 0001439  88.8999 271.2158 15.08867603129074,6917.796,95.436,540.656,538.666,0.0
51150.0,STARLINK-3357,PAYLOAD,2024-05-11 11:47:23,15.08915661,0.0001265,53.2204,53.9092,109.0361,251.0768,0.0015438,0.00024418,0.0,0 STARLINK-3357,1 51150U 22005AY  24132.49124397  .00024418  00000-0  15438-2 0  9994,2 51150  53.2204  53.9092 0001265 109.0361 251.0768 15.08915661129139,6917.649,95.433,540.389,538.639,0.0
51150.0,STARLINK-3357,PAYLOAD,2024-05-11 22:55:06,15.08854753,0.0001608,53.2185,51.8266,113.0735,247.0427,-0.00026399,-4.489e-05,0.0,0 STARLINK-3357,1 51150U 22005AY  24132.95493321 -.00004489  00000-0 -26399-3 0  9998,2 51150  53.2185  51.8266 0001608 113.0735 247.0427 15.08854753128093,6917.835,95.437,540.813,538.588,0.0
51150.0,STARLINK-3357,PAYLOAD,2024-05-12 03:41:17,15.08729112,0.0001257,53.2188,50.9274,92.0827,268.0309,-0.0047156,-0.00074336,0.0,0 STARLINK-3357,1 51150U 22005AY  24133.15367936 -.00074336  00000-0 -47156-2 0  9994,2 51150  53.2188  50.9274 0001257  92.0827 268.0309 15.08729112129232,6918.219,95.445,540.954,539.215,0.0
51150.0,STARLINK-3357,PAYLOAD,2024-05-12 11:38:16,15.08724702,0.0002216,53.2187,49.444,122.2537,237.867,-0.0021932,-0.00034916,0.0,0 STARLINK-3357,1 51150U 22005AY  24133.48491041 -.00034916  00000-0 -21932-2 0  9999,2 51150  53.2187  49.4440 0002216 122.2537 237.8670 15.08724702129289,6918.233,95.445,541.631,538.565,0.0
51150.0,STARLINK-3357,PAYLOAD,2024-05-12 22:45:59,15.08779919,0.0001931,53.2186,47.3635,107.2462,252.8742,0.0019742,0.0003122,0.0,0 STARLINK-3357,1 51150U 22005AY  24133.94860961  .00031220  00000-0  19742-2 0  9990,2 51150  53.2186  47.3635 0001931 107.2462 252.8742 15.08779919128246,6918.064,95.441,541.265,538.593,0.0
51150.0,STARLINK-3357,PAYLOAD,2024-05-13 03:32:09,15.08795116,0.0001986,53.2174,46.4711,110.778,249.3425,0.0024386,0.00038688,0.0,0 STARLINK-3357,1 51150U 22005AY  24134.14733574  .00038688  00000-0  24386-2 0  9997,2 51150  53.2174  46.4711 0001986 110.7780 249.3425 15.08795116129382,6918.018,95.44,541.257,538.509,0.0
51150.0,STARLINK-3357,PAYLOAD,2024-05-13 11:29:05,15.08834783,0.0001927,53.2176,44.9856,112.2103,247.9094,0.002075,0.00032886,0.0,0 STARLINK-3357,1 51150U 22005AY  24134.47853502  .00032886  00000-0  20750-2 0  9992,2 51150  53.2176  44.9856 0001927 112.2103 247.9094 15.08834783129434,6917.896,95.438,541.094,538.428,0.0
51150.0,STARLINK-3357,PAYLOAD,2024-05-14 00:12:09,15.08879171,0.0001865,53.2177,42.6055,113.3494,246.7694,0.001723,0.0002727,0.0,0 STARLINK-3357,1 51150U 22005AY  24135.00844189  .00027270  00000-0  17230-2 0  9993,2 51150  53.2177  42.6055 0001865 113.3494 246.7694 15.08879171129519,6917.761,95.435,540.916,538.335,0.0
51150.0,STARLINK-3357,PAYLOAD,2024-05-14 11:19:49,15.08901095,0.0001803,53.2176,40.5229,116.3091,243.8086,0.0016337,0.00025852,0.0,0 STARLINK-3357,1 51150U 22005AY  24135.47210608  .00025852  00000-0  16337-2 0  9998,2 51150  53.2176  40.5229 0001803 116.3091 243.8086 15.08901095128474,6917.694,95.434,540.806,538.311,0.0
51150.0,STARLINK-3357,PAYLOAD,2024-05-14 22:27:30,15.08891802,0.0001852,53.2178,38.4423,109.6904,250.4288,0.0016963,0.0002685,0.0,0 STARLINK-3357,1 51150U 22005AY  24135.93577493  .00026850  00000-0  16963-2 0  9991,2 51150  53.2178  38.4423 0001852 109.6904 250.4288 15.08891802128540,6917.722,95.434,540.868,538.306,0.0
51150.0,STARLINK-3357,PAYLOAD,2024-05-15 03:13:39,15.08901822,0.0001816,53.2184,37.5499,114.3052,245.813,0.0021647,0.0003439,0.0,0 STARLINK-3357,1 51150U 22005AY  24136.13448774  .00034390  00000-0  21647-2 0  9996,2 51150  53.2184  37.5499 0001816 114.3052 245.8130 15.08901822129681,6917.691,95.434,540.813,538.3,0.0
